start=new Date('2022-05-17T00:00:00.000Z').valueOf();
sats=[{"APOAPSIS":"548.275","TLE_LINE1":"1 48308U 21036AJ  22136.54844853  .00000744  00000-0  68871-4 0  9999","MEAN_ELEMENT_THEORY":"SGP4","FILE":"3448591","EPHEMERIS_TYPE":"0","EPOCH":"2022-05-16T13:09:45.952992","TIME_SYSTEM":"UTC","MEAN_MOTION_DOT":"0.00000744","MEAN_MOTION_DDOT":"0.0000000000000","ARG_OF_PERICENTER":"68.1505","SEMIMAJOR_AXIS":"6925.407","ECCENTRICITY":"0.00014480","PERIOD":"95.593","MEAN_MOTION":"15.06380901","NORAD_CAT_ID":"48308","GP_ID":"203697875","INCLINATION":"53.0545","LAUNCH_DATE":"2021-04-29","CENTER_NAME":"EARTH","DECAY_DATE":null,"MEAN_ANOMALY":"291.9638","COUNTRY_CODE":"US","PERIAPSIS":"546.269","OBJECT_TYPE":"PAYLOAD","REV_AT_EPOCH":"5819","CLASSIFICATION_TYPE":"U","BSTAR":"0.00006887100000","ELEMENT_SET_NO":"999","OBJECT_NAME":"STARLINK-2532","RCS_SIZE":"LARGE","REF_FRAME":"TEME","OBJECT_ID":"2021-036AJ","TLE_LINE2":"2 48308  53.0545 225.6746 0001448  68.1505 291.9638 15.06380901 58195","SITE":"AFETR","RA_OF_ASC_NODE":"225.6746"},{"TLE_LINE1":"1 48309U 21036AK  22136.54475357 -.00000792  00000-0 -34296-4 0  9998","APOAPSIS":"548.338","MEAN_ELEMENT_THEORY":"SGP4","FILE":"3448591","EPHEMERIS_TYPE":"0","MEAN_MOTION_DOT":"-0.00000792","EPOCH":"2022-05-16T13:04:26.708448","TIME_SYSTEM":"UTC","MEAN_MOTION_DDOT":"0.0000000000000","ARG_OF_PERICENTER":"68.7953","MEAN_MOTION":"15.06389747","PERIOD":"95.593","ECCENTRICITY":"0.00015790","SEMIMAJOR_AXIS":"6925.380","GP_ID":"203698614","LAUNCH_DATE":"2021-04-29","INCLINATION":"53.0555","NORAD_CAT_ID":"48309","CENTER_NAME":"EARTH","MEAN_ANOMALY":"291.3204","DECAY_DATE":null,"REV_AT_EPOCH":"5819","COUNTRY_CODE":"US","OBJECT_TYPE":"PAYLOAD","PERIAPSIS":"546.151","ELEMENT_SET_NO":"999","BSTAR":"-0.00003429600000","CLASSIFICATION_TYPE":"U","OBJECT_ID":"2021-036AK","REF_FRAME":"TEME","RCS_SIZE":"LARGE","OBJECT_NAME":"STARLINK-2517","RA_OF_ASC_NODE":"225.6992","TLE_LINE2":"2 48309  53.0555 225.6992 0001579  68.7953 291.3204 15.06389747 58198","SITE":"AFETR"},{"CLASSIFICATION_TYPE":"U","ELEMENT_SET_NO":"999","BSTAR":"-0.00000520280000","COUNTRY_CODE":"US","OBJECT_TYPE":"PAYLOAD","PERIAPSIS":"546.235","REV_AT_EPOCH":"5819","TLE_LINE2":"2 48310  53.0549 225.7049 0001432  67.6500 292.4640 15.06395589 58198","SITE":"AFETR","RA_OF_ASC_NODE":"225.7049","OBJECT_NAME":"STARLINK-2536","RCS_SIZE":"LARGE","REF_FRAME":"TEME","OBJECT_ID":"2021-036AL","CENTER_NAME":"EARTH","NORAD_CAT_ID":"48310","INCLINATION":"53.0549","GP_ID":"203696874","LAUNCH_DATE":"2021-04-29","DECAY_DATE":null,"MEAN_ANOMALY":"292.4640","ARG_OF_PERICENTER":"67.6500","MEAN_MOTION_DDOT":"0.0000000000000","TIME_SYSTEM":"UTC","EPOCH":"2022-05-16T12:59:07.894176","MEAN_MOTION_DOT":"-0.00000359","SEMIMAJOR_AXIS":"6925.362","PERIOD":"95.592","ECCENTRICITY":"0.00014320","MEAN_MOTION":"15.06395589","FILE":"3448591","EPHEMERIS_TYPE":"0","MEAN_ELEMENT_THEORY":"SGP4","APOAPSIS":"548.219","TLE_LINE1":"1 48310U 21036AL  22136.54106359 -.00000359  00000-0 -52028-5 0  9996"},{"MEAN_ELEMENT_THEORY":"SGP4","FILE":"3448714","EPHEMERIS_TYPE":"0","APOAPSIS":"548.283","TLE_LINE1":"1 48311U 21036AM  22136.67006883  .00001548  00000-0  12278-3 0  9992","MEAN_MOTION_DDOT":"0.0000000000000","ARG_OF_PERICENTER":"68.0513","MEAN_MOTION_DOT":"0.00001548","EPOCH":"2022-05-16T16:04:53.946912","TIME_SYSTEM":"UTC","MEAN_MOTION":"15.06401501","SEMIMAJOR_AXIS":"6925.344","PERIOD":"95.592","ECCENTRICITY":"0.00015510","CENTER_NAME":"EARTH","GP_ID":"203703486","INCLINATION":"53.0543","LAUNCH_DATE":"2021-04-29","NORAD_CAT_ID":"48311","DECAY_DATE":null,"MEAN_ANOMALY":"292.0640","ELEMENT_SET_NO":"999","BSTAR":"0.00012278000000","CLASSIFICATION_TYPE":"U","REV_AT_EPOCH":"5885","COUNTRY_CODE":"US","PERIAPSIS":"546.135","OBJECT_TYPE":"PAYLOAD","SITE":"AFETR","TLE_LINE2":"2 48311  53.0543 225.1292 0001551  68.0513 292.0640 15.06401501 58859","RA_OF_ASC_NODE":"225.1292","RCS_SIZE":"LARGE","REF_FRAME":"TEME","OBJECT_ID":"2021-036AM","OBJECT_NAME":"STARLINK-2534"},{"FILE":"3448714","MEAN_ELEMENT_THEORY":"SGP4","EPHEMERIS_TYPE":"0","TLE_LINE1":"1 48312U 21036AN  22136.60003094 -.00001835  00000-0 -10432-3 0  9998","APOAPSIS":"548.388","MEAN_MOTION":"15.06392664","PERIOD":"95.593","ECCENTRICITY":"0.00016640","SEMIMAJOR_AXIS":"6925.371","ARG_OF_PERICENTER":"49.3026","MEAN_MOTION_DDOT":"0.0000000000000","MEAN_MOTION_DOT":"-0.00001835","EPOCH":"2022-05-16T14:24:02.673216","TIME_SYSTEM":"UTC","MEAN_ANOMALY":"310.8108","DECAY_DATE":null,"CENTER_NAME":"EARTH","INCLINATION":"53.0544","GP_ID":"203703765","LAUNCH_DATE":"2021-04-29","NORAD_CAT_ID":"48312","RA_OF_ASC_NODE":"225.4476","TLE_LINE2":"2 48312  53.0544 225.4476 0001664  49.3026 310.8108 15.06392664 58840","SITE":"AFETR","OBJECT_ID":"2021-036AN","REF_FRAME":"TEME","RCS_SIZE":"LARGE","OBJECT_NAME":"STARLINK-2061","ELEMENT_SET_NO":"999","BSTAR":"-0.00010432000000","CLASSIFICATION_TYPE":"U","REV_AT_EPOCH":"5884","OBJECT_TYPE":"PAYLOAD","COUNTRY_CODE":"US","PERIAPSIS":"546.084"},{"FILE":"3448715","EPHEMERIS_TYPE":"0","MEAN_ELEMENT_THEORY":"SGP4","APOAPSIS":"548.410","TLE_LINE1":"1 48313U 21036AP  22136.66269421 -.00003337  00000-0 -20517-3 0  9997","MEAN_MOTION":"15.06408000","SEMIMAJOR_AXIS":"6925.324","ECCENTRICITY":"0.00017630","PERIOD":"95.592","MEAN_MOTION_DDOT":"0.0000000000000","ARG_OF_PERICENTER":"77.2000","MEAN_MOTION_DOT":"-0.00003337","TIME_SYSTEM":"UTC","EPOCH":"2022-05-16T15:54:16.779744","DECAY_DATE":null,"MEAN_ANOMALY":"282.9186","CENTER_NAME":"EARTH","LAUNCH_DATE":"2021-04-29","GP_ID":"203703780","INCLINATION":"53.0539","NORAD_CAT_ID":"48313","SITE":"AFETR","TLE_LINE2":"2 48313  53.0539 225.1485 0001763  77.2000 282.9186 15.06408000 58852","RA_OF_ASC_NODE":"225.1485","RCS_SIZE":"LARGE","OBJECT_ID":"2021-036AP","REF_FRAME":"TEME","OBJECT_NAME":"STARLINK-2541","ELEMENT_SET_NO":"999","BSTAR":"-0.00020517000000","CLASSIFICATION_TYPE":"U","REV_AT_EPOCH":"5885","COUNTRY_CODE":"US","OBJECT_TYPE":"PAYLOAD","PERIAPSIS":"545.968"},{"DECAY_DATE":null,"MEAN_ANOMALY":"292.8387","GP_ID":"203709617","LAUNCH_DATE":"2021-04-29","INCLINATION":"53.0550","NORAD_CAT_ID":"48314","CENTER_NAME":"EARTH","RCS_SIZE":"LARGE","REF_FRAME":"TEME","OBJECT_ID":"2021-036AQ","OBJECT_NAME":"STARLINK-2549","TLE_LINE2":"2 48314  53.0550 224.8878 0001500  67.2761 292.8387 15.06397677 58861","SITE":"AFETR","RA_OF_ASC_NODE":"224.8878","REV_AT_EPOCH":"5886","PERIAPSIS":"546.182","COUNTRY_CODE":"US","OBJECT_TYPE":"PAYLOAD","ELEMENT_SET_NO":"999","BSTAR":"0.00000645610000","CLASSIFICATION_TYPE":"U","APOAPSIS":"548.259","TLE_LINE1":"1 48314U 21036AQ  22136.72536215 -.00000185  00000-0  64561-5 0  9999","MEAN_ELEMENT_THEORY":"SGP4","FILE":"3448974","EPHEMERIS_TYPE":"0","MEAN_MOTION":"15.06397677","SEMIMAJOR_AXIS":"6925.356","PERIOD":"95.592","ECCENTRICITY":"0.00015000","MEAN_MOTION_DOT":"-0.00000185","EPOCH":"2022-05-16T17:24:31.289760","TIME_SYSTEM":"UTC","ARG_OF_PERICENTER":"67.2761","MEAN_MOTION_DDOT":"0.0000000000000"},{"APOAPSIS":"548.209","TLE_LINE1":"1 48315U 21036AR  22136.52168252 -.00000292  00000-0 -67477-6 0  9990","EPHEMERIS_TYPE":"0","FILE":"3448591","MEAN_ELEMENT_THEORY":"SGP4","EPOCH":"2022-05-16T12:31:13.369728","TIME_SYSTEM":"UTC","MEAN_MOTION_DOT":"-0.00000292","MEAN_MOTION_DDOT":"0.0000000000000","ARG_OF_PERICENTER":"62.0636","SEMIMAJOR_AXIS":"6925.344","ECCENTRICITY":"0.00014440","PERIOD":"95.592","MEAN_MOTION":"15.06401517","NORAD_CAT_ID":"48315","GP_ID":"203697624","INCLINATION":"53.0522","LAUNCH_DATE":"2021-04-29","CENTER_NAME":"EARTH","DECAY_DATE":null,"MEAN_ANOMALY":"298.0499","PERIAPSIS":"546.209","COUNTRY_CODE":"US","OBJECT_TYPE":"PAYLOAD","REV_AT_EPOCH":"5818","CLASSIFICATION_TYPE":"U","ELEMENT_SET_NO":"999","BSTAR":"-0.00000067477000","OBJECT_NAME":"STARLINK-2506","RCS_SIZE":"LARGE","OBJECT_ID":"2021-036AR","REF_FRAME":"TEME","TLE_LINE2":"2 48315  53.0522 225.7829 0001444  62.0636 298.0499 15.06401517 58184","SITE":"AFETR","RA_OF_ASC_NODE":"225.7829"},{"EPHEMERIS_TYPE":"0","FILE":"3448591","MEAN_ELEMENT_THEORY":"SGP4","APOAPSIS":"548.220","TLE_LINE1":"1 48316U 21036AS  22136.51894809  .00002622  00000-0  19489-3 0  9998","MEAN_MOTION_DDOT":"0.0000000000000","ARG_OF_PERICENTER":"54.6565","TIME_SYSTEM":"UTC","EPOCH":"2022-05-16T12:27:17.114976","MEAN_MOTION_DOT":"0.00002622","SEMIMAJOR_AXIS":"6925.379","PERIOD":"95.593","ECCENTRICITY":"0.00014090","MEAN_MOTION":"15.06390064","CENTER_NAME":"EARTH","NORAD_CAT_ID":"48316","INCLINATION":"53.0538","GP_ID":"203697876","LAUNCH_DATE":"2021-04-29","DECAY_DATE":null,"MEAN_ANOMALY":"305.4555","CLASSIFICATION_TYPE":"U","ELEMENT_SET_NO":"999","BSTAR":"0.00019489000000","COUNTRY_CODE":"US","OBJECT_TYPE":"PAYLOAD","PERIAPSIS":"546.268","REV_AT_EPOCH":"5818","SITE":"AFETR","TLE_LINE2":"2 48316  53.0538 225.8076 0001409  54.6565 305.4555 15.06390064 58186","RA_OF_ASC_NODE":"225.8076","OBJECT_NAME":"STARLINK-2507","RCS_SIZE":"LARGE","OBJECT_ID":"2021-036AS","REF_FRAME":"TEME"},{"EPHEMERIS_TYPE":"0","FILE":"3448707","MEAN_ELEMENT_THEORY":"SGP4","APOAPSIS":"548.334","TLE_LINE1":"1 48317U 21036AT  22136.71429972  .00001168  00000-0  97249-4 0  9991","SEMIMAJOR_AXIS":"6925.313","ECCENTRICITY":"0.00016690","PERIOD":"95.591","MEAN_MOTION":"15.06411561","MEAN_MOTION_DDOT":"0.0000000000000","ARG_OF_PERICENTER":"43.6302","TIME_SYSTEM":"UTC","EPOCH":"2022-05-16T17:08:35.495808","MEAN_MOTION_DOT":"0.00001168","DECAY_DATE":null,"MEAN_ANOMALY":"316.4819","CENTER_NAME":"EARTH","NORAD_CAT_ID":"48317","INCLINATION":"53.0518","GP_ID":"203703370","LAUNCH_DATE":"2021-04-29","SITE":"AFETR","TLE_LINE2":"2 48317  53.0518 224.9364 0001669  43.6302 316.4819 15.06411561 58866","RA_OF_ASC_NODE":"224.9364","OBJECT_NAME":"STARLINK-2513","RCS_SIZE":"LARGE","OBJECT_ID":"2021-036AT","REF_FRAME":"TEME","CLASSIFICATION_TYPE":"U","ELEMENT_SET_NO":"999","BSTAR":"0.00009724900000","PERIAPSIS":"546.022","COUNTRY_CODE":"US","OBJECT_TYPE":"PAYLOAD","REV_AT_EPOCH":"5886"}];
